<?xml version="1.0" encoding="UTF-8"?>
<gpx version="1.1" creator="Earth Stories" xmlns="http://www.topografix.com/GPX/1/1">
  <trk>
    <name>Field walk</name>
    <trkseg>
      <trkpt lat="38.8977" lon="-77.0365"><ele>12.4</ele><time>2026-08-05T10:00:00Z</time></trkpt>
      <trkpt lat="38.8978" lon="-77.0364"><ele>12.8</ele><time>2026-08-05T10:00:10Z</time></trkpt>
      <trkpt lat="38.8979" lon="-77.0363"><ele>13.1</ele><time>2026-08-05T10:00:20Z</time></trkpt>
    </trkseg>
  </trk>
</gpx>
